CUBEBUG-2 (LO-74)       
1 39440U 13066AA  26194.85564855  .00001982  00000+0  18634-3 0  9998
2 39440  97.8911 143.9522 0055843 299.8965  59.6713 14.93961470680971
FUNCUBE-1 (AO-73)       
1 39444U 13066AE  26194.43695187  .00003565  00000+0  22113-3 0  9995
2 39444  97.8287 166.4387 0038020 113.3139 247.2098 15.09805136683621
UWE-3                   
1 39446U 13066AG  26194.81649093  .00001855  00000+0  16225-3 0  9991
2 39446  97.8703 151.0751 0047496 229.2786 130.4306 14.97193233681563
UNISAT-6                
1 40012U 14033C   26194.42080229  .00001186  00000+0  13194-3 0  9993
2 40012  97.7906 346.6769 0044324 343.7133  16.2657 14.88362420650061
DUCHIFAT-1              
1 40021U 14033M   26194.70509310  .00087109  00000+0  69968-3 0  9990
2 40021  98.0429 257.7182 0002261 251.1846 108.9169 15.70713406659908
QB50P1                  
1 40025U 14033R   26194.50911713  .00004875  00000+0  23878-3 0  9995
2 40025  98.0963 207.5077 0010348 130.1673 230.0467 15.18650045657020
LILACSAT-2              
1 40908U 15049K   26194.83796403  .00012470  00000+0  20621-3 0  9999
2 40908  97.4626 232.7037 0008343 145.5486 214.6308 15.52326817599885
FOX-1A (AO-85)          
1 40967U 15058D   26194.37655269  .00001690  00000+0  15942-3 0  9999
2 40967  64.7723 197.5870 0132208  46.4986 314.7024 14.91081725117476
CAS-2T & KS-1Q          
1 41847U 16066G   26194.76610676  .00000570  00000+0  88179-4 0  9992
2 41847  98.3814 270.1982 0342330  49.0886 313.9419 14.44768526508637
RADFXSAT (FOX-1B)       
1 43017U 17073E   26194.59796664  .00003877  00000+0  17078-3 0  9997
2 43017  97.4670  61.2749 0148173 237.0562 121.6348 15.13047327469386
DIWATA-2B               
1 43678U 18084H   26194.84396387  .00001131  00000+0  94739-4 0  9990
2 43678  98.1216  32.2198 0012913  88.4938 271.7763 15.00560147420219
ES'HAIL 2               
1 43700U 18090A   26194.82378230  .00000139  00000+0  00000+0 0  9998
2 43700   0.0040 107.9368 0002162  51.3529  94.7468  1.00270157 27943
FOX-1CLIFF (AO-95)      
1 43770U 18099N   26194.68304622  .00006119  00000+0  23179-3 0  9992
2 43770  97.4375 254.8390 0007145 246.2412 113.8077 15.27253452417260
ITASAT                  
1 43786U 18099AE  26194.63128044  .00003908  00000+0  18775-3 0  9995
2 43786  97.4017 245.6182 0010808 256.6062 103.3968 15.19370289416927
JY1SAT (JO-97)          
1 43803U 18099AX  26194.70877882  .00010252  00000+0  30900-3 0  9998
2 43803  97.4122 257.6480 0006676 162.6699 197.4773 15.34488293417693
UWE-4                   
1 43880U 18111E   26194.80072744  .00020115  00000+0  38928-3 0  9990
2 43880  97.5848 124.4503 0005951 200.2503 159.8511 15.47760123414899
TIANYAN 01              
1 44881U 19093C   26194.83477098  .00001012  00000+0  12005-3 0  9999
2 44881  97.7529 266.4159 0013714   6.2550 353.8834 14.86561935355378
RS-44 & BREEZE-KM R/B   
1 44909U 19096E   26194.82115456  .00000000  00000+0 -51609-4 0  9990
2 44909  82.5240 322.0071 0218543  82.1898 280.3952 12.79748918305758
SALSAT                  
1 46495U 20068K   26194.50246524  .00004373  00000+0  15263-3 0  9990
2 46495  97.8854 199.1769 0008994 199.0888 161.0016 15.30157505319387
XW-3 (CAS-9)            
1 50466U 21131B   26194.85018523  .00000244  00000+0  88942-4 0  9997
2 50466  98.4989 287.0962 0004696  33.9225 326.2263 14.41380917238952
GREENCUBE (IO-117)      
1 53109U 22080E   26193.70867104 -.00000003  00000+0  00000+0 0  9996
2 53109  70.1415 289.3709 0009030 284.1311  75.8345  6.42583319 93700
UMKA 1 (RS40S)          
1 57172U 23091G   26194.87022419  .00003356  00000+0  15372-3 0  9999
2 57172  97.5040 253.4675 0013194  33.9075 326.3002 15.21112358168062
CUBESX-HSE 3 (RS42S)    
1 57178U 23091N   26194.83067667  .00007506  00000+0  24625-3 0  9997
2 57178  97.5084 260.7643 0009818   6.9424 353.1951 15.31863227168507
MONITOR-3 (RS58S)       
1 57180U 23091Q   26194.84962399  .00006289  00000+0  23013-3 0  9994
2 57180  97.5074 258.4984 0011141  14.4738 345.6819 15.28356552168362
MONITOR-4 (RS57S)       
1 57182U 23091S   26194.82719606  .00006142  00000+0  22424-3 0  9998
2 57182  97.5069 258.4484 0011132  14.8806 345.2759 15.28442837168364
MONITOR-2 (RS39S)       
1 57184U 23091U   26194.85960730  .00002785  00000+0  13566-3 0  9995
2 57184  97.5062 252.9718 0011536  28.4280 331.7581 15.19147286168007
SVYATOBOR 1 (RS60S)     
1 57187U 23091X   26194.86389008  .00005410  00000+0  20651-3 0  9993
2 57187  97.5081 258.8340 0008870   9.4749 350.6656 15.27049711168380
VIZARD-METEO (RS38S)    
1 57189U 23091Z   26194.84979279  .00009516  00000+0  26638-3 0  9990
2 57189  97.5086 264.8828 0005779 345.1096  14.9977 15.36847656168789
POLYTECH-UNIVERSE 3 (R*)
1 57191U 23091AB  26194.81731769  .00002814  00000+0  13599-3 0  9996
2 57191  97.5036 252.4338 0016189  42.2072 318.0406 15.19359156167993
UTMN 2 (RS27S)          
1 57203U 23091AP  26194.83389942  .00007313  00000+0  23412-3 0  9998
2 57203  97.5081 262.4337 0006867 355.3355   4.7822 15.32681125168622
