OBJECT_NAME,OBJECT_ID,EPOCH,MEAN_MOTION,ECCENTRICITY,INCLINATION,RA_OF_ASC_NODE,ARG_OF_PERICENTER,MEAN_ANOMALY,EPHEMERIS_TYPE,CLASSIFICATION_TYPE,NORAD_CAT_ID,ELEMENT_SET_NO,REV_AT_EPOCH,BSTAR,MEAN_MOTION_DOT,MEAN_MOTION_DDOT
CUBEBUG-2 (LO-74),2013-066AA,2026-07-13T20:32:08.034720,14.93961470,.0055843,97.8911,143.9522,299.8965,59.6713,0,U,39440,999,68097,.18634E-3,.1982E-4,0
FUNCUBE-1 (AO-73),2013-066AE,2026-07-13T10:29:12.641568,15.09805136,.00380208,97.8287,166.4387,113.3139,247.2098,0,U,39444,999,68362,.22112613E-3,.3565E-4,0
UWE-3,2013-066AG,2026-07-13T19:35:44.816352,14.97193233,.0047496,97.8703,151.0751,229.2786,130.4306,0,U,39446,999,68156,.16225E-3,.1855E-4,0
UNISAT-6,2014-033C,2026-07-13T10:05:57.317856,14.88362420,.00443241,97.7906,346.6769,343.7133,16.2657,0,U,40012,999,65006,.1319415E-3,.1186E-4,0
DUCHIFAT-1,2014-033M,2026-07-13T16:55:20.043840,15.70713406,.0002261,98.0429,257.7182,251.1846,108.9169,0,U,40021,999,65990,.69968E-3,.87109E-3,0
QB50P1,2014-033R,2026-07-13T12:13:07.720032,15.18650045,.0010348,98.0963,207.5077,130.1673,230.0467,0,U,40025,999,65702,.23878E-3,.4875E-4,0
LILACSAT-2,2015-049K,2026-07-13T20:06:40.092192,15.52326817,.0008343,97.4626,232.7037,145.5486,214.6308,0,U,40908,999,59988,.20621E-3,.1247E-3,0
FOX-1A (AO-85),2015-058D,2026-07-13T09:02:14.152416,14.91081725,.01322082,64.7723,197.5870,46.4986,314.7024,0,U,40967,999,11747,.15941732E-3,.169E-4,0
CAS-2T & KS-1Q,2016-066G,2026-07-13T18:23:11.624064,14.44768526,.034233,98.3814,270.1982,49.0886,313.9419,0,U,41847,999,50863,.88179E-4,.57E-5,0
RADFXSAT (FOX-1B),2017-073E,2026-07-13T14:21:04.317696,15.13047327,.0148173,97.4670,61.2749,237.0562,121.6348,0,U,43017,999,46938,.17078E-3,.3877E-4,0
DIWATA-2B,2018-084H,2026-07-13T20:15:18.478368,15.00560147,.0012913,98.1216,32.2198,88.4938,271.7763,0,U,43678,999,42021,.94739E-4,.1131E-4,0
ES'HAIL 2,2018-090A,2026-07-13T19:46:14.790720,1.00270157,.0002162,0.0040,107.9368,51.3529,94.7468,0,U,43700,999,2794,0,.139E-5,0
FOX-1CLIFF (AO-95),2018-099N,2026-07-13T16:23:35.193408,15.27253452,.0007145,97.4375,254.8390,246.2412,113.8077,0,U,43770,999,41726,.23179E-3,.6119E-4,0
ITASAT,2018-099AE,2026-07-13T15:09:02.630016,15.19370289,.0010808,97.4017,245.6182,256.6062,103.3968,0,U,43786,999,41692,.18775E-3,.3908E-4,0
JY1SAT (JO-97),2018-099AX,2026-07-13T17:00:38.490048,15.34488293,.0006676,97.4122,257.6480,162.6699,197.4773,0,U,43803,999,41769,.309E-3,.10252E-3,0
UWE-4,2018-111E,2026-07-13T19:13:02.850816,15.47760123,.0005951,97.5848,124.4503,200.2503,159.8511,0,U,43880,999,41489,.38928E-3,.20115E-3,0
TIANYAN 01,2019-093C,2026-07-13T20:02:04.212672,14.86561935,.0013714,97.7529,266.4159,6.2550,353.8834,0,U,44881,999,35537,.12005E-3,.1012E-4,0
RS-44 & BREEZE-KM R/B,2019-096E,2026-07-13T19:42:27.753984,12.79748918,.0218543,82.5240,322.0071,82.1898,280.3952,0,U,44909,999,30575,-.51609E-4,0,0
SALSAT,2020-068K,2026-07-13T12:03:32.996736,15.30157505,.00089942,97.8854,199.1769,199.0888,161.0016,0,U,46495,999,31938,.15262836E-3,.4373E-4,0
XW-3 (CAS-9),2021-131B,2026-07-13T20:24:16.003872,14.41380917,.0004696,98.4989,287.0962,33.9225,326.2263,0,U,50466,999,23895,.88942E-4,.244E-5,0
GREENCUBE (IO-117),2022-080E,2026-07-12T17:00:29.177856,6.42583319,.00090302,70.1415,289.3709,284.1311,75.8345,0,U,53109,999,9370,0,-.3E-7,0
UMKA 1 (RS40S),2023-091G,2026-07-13T20:53:07.370016,15.21112358,.0013194,97.5040,253.4675,33.9075,326.3002,0,U,57172,999,16806,.15372E-3,.3356E-4,0
CUBESX-HSE 3 (RS42S),2023-091N,2026-07-13T19:56:10.464288,15.31863227,.0009818,97.5084,260.7643,6.9424,353.1951,0,U,57178,999,16850,.24625E-3,.7506E-4,0
MONITOR-3 (RS58S),2023-091Q,2026-07-13T20:23:27.512736,15.28356552,.0011141,97.5074,258.4984,14.4738,345.6819,0,U,57180,999,16836,.23013E-3,.6289E-4,0
MONITOR-4 (RS57S),2023-091S,2026-07-13T19:51:09.739584,15.28442837,.0011132,97.5069,258.4484,14.8806,345.2759,0,U,57182,999,16836,.22424E-3,.6142E-4,0
MONITOR-2 (RS39S),2023-091U,2026-07-13T20:37:50.070720,15.19147286,.0011536,97.5062,252.9718,28.4280,331.7581,0,U,57184,999,16800,.13566E-3,.2785E-4,0
SVYATOBOR 1 (RS60S),2023-091X,2026-07-13T20:44:00.102912,15.27049711,.000887,97.5081,258.8340,9.4749,350.6656,0,U,57187,999,16838,.20651E-3,.541E-4,0
VIZARD-METEO (RS38S),2023-091Z,2026-07-13T20:23:42.097056,15.36847656,.0005779,97.5086,264.8828,345.1096,14.9977,0,U,57189,999,16878,.26638E-3,.9516E-4,0
POLYTECH-UNIVERSE 3 (RS46S),2023-091AB,2026-07-13T19:36:56.248416,15.19359156,.0016189,97.5036,252.4338,42.2072,318.0406,0,U,57191,999,16799,.13599E-3,.2814E-4,0
UTMN 2 (RS27S),2023-091AP,2026-07-13T20:00:48.909888,15.32681125,.0006867,97.5081,262.4337,355.3355,4.7822,0,U,57203,999,16862,.23412E-3,.7313E-4,0
